BEIDOU-2 IGSO-1 (C06)   
1 36828U 10036A   25047.75044843 -.00000116  00000+0  00000+0 0  9997
2 36828  54.2690 167.3521 0044687 208.7998 147.2943  1.00260014 53228
BEIDOU-2 G4 (C04)       
1 37210U 10057A   25047.61838417 -.00000108  00000+0  00000+0 0  9990
2 37210   2.4409  70.4365 0008188 203.1357 255.8581  1.00273150 52421
BEIDOU-2 IGSO-2 (C07)   
1 37256U 10068A   25047.42940021 -.00000172  00000+0  00000+0 0  9997
2 37256  48.4264 277.8298 0038598 212.9663 278.8061  1.00274927 51929
BEIDOU-2 IGSO-3 (C08)   
1 37384U 11013A   25047.71449987 -.00000154  00000+0  00000+0 0  9997
2 37384  61.7188  44.7559 0031542 185.0225 280.0708  1.00296817 50790
BEIDOU-2 IGSO-4 (C09)   
1 37763U 11038A   25046.66990815 -.00000074  00000+0  00000+0 0  9990
2 37763  54.5735 170.0217 0134309 229.0577  81.8681  1.00257113 49765
BEIDOU-2 IGSO-5 (C10)   
1 37948U 11073A   25046.93044146 -.00000144  00000+0  00000+0 0  9999
2 37948  48.5636 277.5353 0100655 220.0992  79.8402  1.00277273 48256
BEIDOU-2 G5 (C05)       
1 38091U 12008A   25047.75322836  .00000062  00000+0  00000+0 0  9992
2 38091   2.3628  71.2443 0013500 244.6668 160.9381  1.00274596 47508
BEIDOU-2 M3 (C11)       
1 38250U 12018A   25047.24547297 -.00000089  00000+0  00000+0 0  9994
2 38250  56.1604 321.2003 0022840 273.3585  86.4221  1.86233785 86899
BEIDOU-2 M4 (C12)       
1 38251U 12018B   25047.17662013 -.00000088  00000+0  00000+0 0  9990
2 38251  56.0648 320.4555 0013877 279.4662  80.4195  1.86232252 86895
BEIDOU-2 M6 (C14)       
1 38775U 12050B   25046.88650890 -.00000024  00000+0  00000+0 0  9994
2 38775  56.1155  79.0284 0013498 334.1369  25.8620  1.86231081 84251
BEIDOU-2 G6 (C02)       
1 38953U 12059A   25047.89643098 -.00000170  00000+0  00000+0 0  9997
2 38953   3.1846  78.4792 0010017 295.7038 179.6730  1.00271868 45041
BEIDOU-3S IGSO-1S (C31) 
1 40549U 15019A   25046.64187787 -.00000139  00000+0  00000+0 0  9995
2 40549  50.1140 301.3016 0033509 195.6467 331.8933  1.00251094 36187
BEIDOU-3S M2S (C58)     
1 40748U 15037A   25047.37832785 -.00000087  00000+0  00000+0 0  9994
2 40748  55.2894 318.7160 0010091 271.4369  88.4919  1.86229127 65072
BEIDOU-3S M1S (C57)     
1 40749U 15037B   25047.11121978 -.00000087  00000+0  00000+0 0  9992
2 40749  55.2862 318.7184 0004498   4.3277 355.7203  1.86253855 65070
BEIDOU-3S IGSO-2S (C56) 
1 40938U 15053A   25043.08725264 -.00000066  00000+0  00000+0 0  9997
2 40938  49.9805 264.5883 0052128 186.8108 174.8851  1.00251841 34448
BEIDOU-2 IGSO-6 (C13)   
1 41434U 16021A   25047.83765485 -.00000136  00000+0  00000+0 0  9999
2 41434  59.5404  42.8820 0054570 229.9036 272.0626  1.00267682 32610
BEIDOU-2 G7 (C03)       
1 41586U 16037A   25047.75044843 -.00000349  00000+0  00000+0 0  9999
2 41586   1.9663  68.2356 0008739 346.2693 113.1650  1.00273444  2027
BEIDOU-3 M1 (C19)       
1 43001U 17069A   25047.72619354 -.00000026  00000+0  00000+0 0  9993
2 43001  56.2657  79.1286 0011921 300.9696  58.9770  1.86231457 49568
BEIDOU-3 M2 (C20)       
1 43002U 17069B   25047.66391077 -.00000026  00000+0  00000+0 0  9996
2 43002  56.2648  79.1667 0009177 320.2795  39.7174  1.86231020 49557
BEIDOU-3 M7 (C27)       
1 43107U 18003A   25046.33687127 -.00000088  00000+0  00000+0 0  9996
2 43107  54.7489 319.2356 0004198  58.3983 301.6852  1.86232486 48288
BEIDOU-3 M8 (C28)       
1 43108U 18003B   25047.35321451 -.00000088  00000+0  00000+0 0  9995
2 43108  54.7410 319.1847 0003785 284.6833  75.3182  1.86230986 48314
BEIDOU-3 M4 (C22)       
1 43207U 18018A   25046.72044336 -.00000023  00000+0  00000+0 0  9994
2 43207  56.2236  79.2427 0006080 340.8743  19.1701  1.86231359 47688
BEIDOU-3 M3 (C21)       
1 43208U 18018B   25047.32393135 -.00000025  00000+0  00000+0 0  9998
2 43208  56.2237  79.2269 0009406 310.1754  49.8073  1.86231488 47697
BEIDOU-3 M9 (C29)       
1 43245U 18029A   25046.46910180 -.00000085  00000+0  00000+0 0  9996
2 43245  54.6247 316.9147 0001321 330.1369  29.9014  1.86232823 46832
BEIDOU-3 M10 (C30)      
1 43246U 18029B   25046.39942083 -.00000085  00000+0  00000+0 0  9996
2 43246  54.6220 316.9447 0005025   8.1084 351.9455  1.86229021 46819
BEIDOU-2 IGSO-7 (C16)   
1 43539U 18057A   25047.92447420 -.00000123  00000+0  00000+0 0  9990
2 43539  55.1600 167.2680 0084309 234.5982 189.1610  1.00293789 24269
BEIDOU-3 M5 (C23)       
1 43581U 18062A   25046.62500816  .00000034  00000+0  00000+0 0  9998
2 43581  54.1105 198.8470 0001478 327.4539  32.4860  1.86228814 44572
BEIDOU-3 M6 (C24)       
1 43582U 18062B   25047.02654039  .00000040  00000+0  00000+0 0  9998
2 43582  54.1101 198.8227 0006667  44.1852 315.8187  1.86229655 44580
BEIDOU-3 M12 (C26)      
1 43602U 18067A   25046.96124216  .00000038  00000+0  00000+0 0  9994
2 43602  54.2025 197.5287 0008338  36.8528 323.1547  1.86227861 44068
BEIDOU-3 M11 (C25)      
1 43603U 18067B   25047.09494806  .00000040  00000+0  00000+0 0  9998
2 43603  54.2000 197.4888 0004866  32.8461 327.1350  1.86227365 44090
BEIDOU-3 M13 (C32)      
1 43622U 18072A   25047.59201325 -.00000026  00000+0  00000+0 0  9997
2 43622  56.1964  78.7379 0008499 297.9587  62.0189  1.86231221 43614
BEIDOU-3 M14 (C33)      
1 43623U 18072B   25047.45749273 -.00000026  00000+0  00000+0 0  9992
2 43623  56.1982  78.7358 0005862 317.8101  42.2089  1.86231187 43606
BEIDOU-3 M16 (C35)      
1 43647U 18078A   25047.08148392 -.00000086  00000+0  00000+0 0  9994
2 43647  54.5204 316.9719 0008147  18.3315 341.7437  1.86232428 43106
BEIDOU-3 M15 (C34)      
1 43648U 18078B   25046.13679648 -.00000085  00000+0  00000+0 0  9992
2 43648  54.5170 317.0067 0005008  22.5720 337.4954  1.86232236 43100
BEIDOU-3 G1 (C59)       
1 43683U 18085A   25047.53652087 -.00000275  00000+0  00000+0 0  9993
2 43683   2.8006 101.3881 0001710 352.5041  26.0274  1.00268676 23195
BEIDOU-3 M17 (C36)      
1 43706U 18093A   25046.82732045  .00000037  00000+0  00000+0 0  9997
2 43706  54.1938 198.7965 0006373 295.0882  64.7955  1.86228510 42487
BEIDOU-3 M18 (C37)      
1 43707U 18093B   25047.76458769  .00000048  00000+0  00000+0 0  9992
2 43707  54.1946 198.7565 0005800 338.5414  21.3883  1.86229979 42491
BEIDOU-3 IGSO-1 (C38)   
1 44204U 19023A   25047.74516187 -.00000193  00000+0  00000+0 0  9998
2 44204  58.0046  42.6665 0023077 227.3453 264.7046  1.00281784  2342
BEIDOU-2 G8 (C01)       
1 44231U 19027A   25047.67335006 -.00000242  00000+0  00000+0 0  9998
2 44231   1.3858  74.4247 0005994 243.5472 215.7760  1.00275070 21219
BEIDOU-3 IGSO-2 (C39)   
1 44337U 19035A   25047.74040726 -.00000131  00000+0  00000+0 0  9991
2 44337  55.2003 163.1242 0036123 199.9493 168.0441  1.00263631 20802
BEIDOU-3 M24 (C46)      
1 44542U 19061A   25047.83498069  .00000050  00000+0  00000+0 0  9994
2 44542  54.4217 199.0972 0008420  17.7592 342.2246  1.86229136 36758
BEIDOU-3 M23 (C45)      
1 44543U 19061B   25047.39379411  .00000045  00000+0  00000+0 0  9999
2 44543  54.4200 199.0806 0005084  15.2259 321.6221  1.86229452 36747
BEIDOU-3 IGSO-3 (C40)   
1 44709U 19073A   25047.05545367 -.00000159  00000+0  00000+0 0  9991
2 44709  55.6310 286.1316 0041382 182.4348 177.6328  1.00282547 19587
BEIDOU-3 M22 (C44)      
1 44793U 19078A   25047.14177833 -.00000086  00000+0  00000+0 0  9997
2 44793  54.3676 316.8720 0007014  23.5176 336.5603  1.86232095 35597
BEIDOU-3 M21 (C43)      
1 44794U 19078B   25047.27246528 -.00000086  00000+0  00000+0 0  9990
2 44794  54.3409 316.8384 0005123  16.4998 343.5628  1.86227822 35609
BEIDOU-3 M19 (C41)      
1 44864U 19090A   25047.80974515 -.00000027  00000+0  00000+0 0  9990
2 44864  56.1308  78.8883 0019882 284.0511 268.8742  1.86231736 35194
BEIDOU-3 M20 (C42)      
1 44865U 19090B   25047.37273780 -.00000026  00000+0  00000+0 0  9998
2 44865  56.1322  78.9367 0017374 295.5701  54.0494  1.86231692 35168
BEIDOU-3 G2 (C60)       
1 45344U 20017A   25047.90878110 -.00000135  00000+0  00000+0 0  9990
2 45344   2.6685  37.6125 0003190 292.2001 224.5158  1.00272247 18395
BEIDOU-3 G3 (C61)       
1 45807U 20040A   25047.79419906 -.00000348  00000+0  00000+0 0  9997
2 45807   1.2797  60.5229 0003653 314.6789 168.2480  1.00271167 17205
BEIDOU-3 G4 (C62)       
1 56564U 23066A   25047.58434426 -.00000106  00000+0  00000+0 0  9993
2 56564   1.5170 289.9364 0001761 243.8670 343.3964  1.00272585  6534
BEIDOU-3 M28 (C50)      
1 58654U 23207A   25047.35411386 -.00000028  00000+0  00000+0 0  9990
2 58654  55.3173  78.7495 0004579 285.0391  74.9743  1.86232107  7794
BEIDOU-3 M26 (C48)      
1 58655U 23207B   25047.69062860 -.00000029  00000+0  00000+0 0  9998
2 58655  55.3197  78.7240 0005484 271.5909  88.4094  1.86231599  7782
